LUR-1                   
1 60506U 24149AQ  26068.79566301  .00009121  00000+0  32985-3 0  9998
2 60506  97.3790 148.4255 0002777 309.1571  50.9421 15.28658648 86785
STARLINK-34733          
1 66487U 25263C   26068.17221334  .00038612  00000+0  14055-2 0  9990
2 66487  43.0038 353.2895 0001439 252.0512 108.0183 15.27575434 18823
